{
  "type": "FeatureCollection",
  "features": [
    {
      "type": "Feature",
      "properties": {
        "norad_id": 36585,
        "name": "GPS BIIF-1  (PRN 25)",
        "group": "gnss",
        "lat": -51.794847889628954,
        "lon": 150.4294800610876,
        "alt_km": 20444.46626529416,
        "timestamp": "2025-12-06T09:34:17.156136+00:00",
        "meta_object_name": "GPS BIIF-1  (PRN 25)",
        "meta_object_id": "2010-022A",
        "meta_epoch": "2025-12-05T06:08:38.756832",
        "meta_mean_motion": 2.00552724,
        "meta_eccentricity": 0.01258019,
        "meta_inclination": 54.3015,
        "meta_ra_of_asc_node": 216.3758,
        "meta_arg_of_pericenter": 64.9927,
        "meta_mean_anomaly": 115.5079,
        "meta_ephemeris_type": 0,
        "meta_classification_type": "U",
        "meta_norad_cat_id": 36585,
        "meta_element_set_no": 999,
        "meta_rev_at_epoch": 11370,
        "meta_bstar": 0,
        "meta_mean_motion_dot": 6.2e-07,
        "meta_mean_motion_ddot": 0,
        "tle_line1": "1 36585U 10022A   25339.25600413  .00000062  00000+0  00000+0 0  9991",
        "tle_line2": "2 36585  54.3015 216.3758 0125801  64.9927 115.5079  2.00552724113700"
      },
      "geometry": {
        "type": "Point",
        "coordinates": [
          150.4294800610876,
          -51.794847889628954
        ]
      }
    },
    {
      "type": "Feature",
      "properties": {
        "norad_id": 36828,
        "name": "BEIDOU-2 IGSO-1 (C06)",
        "group": "gnss",
        "lat": 14.802736727887451,
        "lon": -26.28011673399063,
        "alt_km": 35656.20570934736,
        "timestamp": "2025-12-06T09:34:17.156148+00:00",
        "meta_object_name": "BEIDOU-2 IGSO-1 (C06)",
        "meta_object_id": "2010-036A",
        "meta_epoch": "2025-12-05T10:47:07.730592",
        "meta_mean_motion": 1.00278097,
        "meta_eccentricity": 0.00512452,
        "meta_inclination": 54.2848,
        "meta_ra_of_asc_node": 164.7141,
        "meta_arg_of_pericenter": 215.7912,
        "meta_mean_anomaly": 323.5719,
        "meta_ephemeris_type": 0,
        "meta_classification_type": "U",
        "meta_norad_cat_id": 36828,
        "meta_element_set_no": 999,
        "meta_rev_at_epoch": 5615,
        "meta_bstar": 0,
        "meta_mean_motion_dot": -4.5e-07,
        "meta_mean_motion_ddot": 0,
        "tle_line1": "1 36828U 10036A   25339.44939503 -.00000045  00000+0  00000+0 0  9994",
        "tle_line2": "2 36828  54.2848 164.7141 0051245 215.7912 323.5719  1.00278097 56159"
      },
      "geometry": {
        "type": "Point",
        "coordinates": [
          -26.28011673399063,
          14.802736727887451
        ]
      }
    },
    {
      "type": "Feature",
      "properties": {
        "norad_id": 37210,
        "name": "BEIDOU-2 G4 (C04)",
        "group": "gnss",
        "lat": -2.437314814093594,
        "lon": 19.227865039753972,
        "alt_km": 35809.63701422828,
        "timestamp": "2025-12-06T09:34:17.156161+00:00",
        "meta_object_name": "BEIDOU-2 G4 (C04)",
        "meta_object_id": "2010-057A",
        "meta_epoch": "2025-12-05T21:18:21.305376",
        "meta_mean_motion": 1.00271317,
        "meta_eccentricity": 0.00109569,
        "meta_inclination": 3.1668,
        "meta_ra_of_asc_node": 69.955,
        "meta_arg_of_pericenter": 189.3794,
        "meta_mean_anomaly": 295.2635,
        "meta_ephemeris_type": 0,
        "meta_classification_type": "U",
        "meta_norad_cat_id": 37210,
        "meta_element_set_no": 999,
        "meta_rev_at_epoch": 5535,
        "meta_bstar": 0,
        "meta_mean_motion_dot": -1.04e-06,
        "meta_mean_motion_ddot": 0,
        "tle_line1": "1 37210U 10057A   25339.88774659 -.00000104  00000+0  00000+0 0  9996",
        "tle_line2": "2 37210   3.1668  69.9550 0010956 189.3794 295.2635  1.00271317 55357"
      },
      "geometry": {
        "type": "Point",
        "coordinates": [
          19.227865039753972,
          -2.437314814093594
        ]
      }
    },
    {
      "type": "Feature",
      "properties": {
        "norad_id": 37256,
        "name": "BEIDOU-2 IGSO-2 (C07)",
        "group": "gnss",
        "lat": 35.78294351787354,
        "lon": -45.24186264228846,
        "alt_km": 35976.68207193153,
        "timestamp": "2025-12-06T09:34:17.156173+00:00",
        "meta_object_name": "BEIDOU-2 IGSO-2 (C07)",
        "meta_object_id": "2010-068A",
        "meta_epoch": "2025-12-03T17:22:36.030432",
        "meta_mean_motion": 1.0028871,
        "meta_eccentricity": 0.00492335,
        "meta_inclination": 47.9043,
        "meta_ra_of_asc_node": 274.2613,
        "meta_arg_of_pericenter": 216.1442,
        "meta_mean_anomaly": 310.2369,
        "meta_ephemeris_type": 0,
        "meta_classification_type": "U",
        "meta_norad_cat_id": 37256,
        "meta_element_set_no": 999,
        "meta_rev_at_epoch": 5483,
        "meta_bstar": 0,
        "meta_mean_motion_dot": -2.25e-06,
        "meta_mean_motion_ddot": 0,
        "tle_line1": "1 37256U 10068A   25337.72402813 -.00000225  00000+0  00000+0 0  9993",
        "tle_line2": "2 37256  47.9043 274.2613 0049233 216.1442 310.2369  1.00288710 54839"
      },
      "geometry": {
        "type": "Point",
        "coordinates": [
          -45.24186264228846,
          35.78294351787354
        ]
      }
    },
    {
      "type": "Feature",
      "properties": {
        "norad_id": 37384,
        "name": "BEIDOU-2 IGSO-3 (C08)",
        "group": "gnss",
        "lat": -58.650675253815805,
        "lon": -18.08695361424688,
        "alt_km": 35813.86617325612,
        "timestamp": "2025-12-06T09:34:17.156185+00:00",
        "meta_object_name": "BEIDOU-2 IGSO-3 (C08)",
        "meta_object_id": "2011-013A",
        "meta_epoch": "2025-12-03T14:52:09.520896",
        "meta_mean_motion": 1.00272128,
        "meta_eccentricity": 0.00353922,
        "meta_inclination": 62.1308,
        "meta_ra_of_asc_node": 42.005,
        "meta_arg_of_pericenter": 186.5359,
        "meta_mean_anomaly": 174.9093,
        "meta_ephemeris_type": 0,
        "meta_classification_type": "U",
        "meta_norad_cat_id": 37384,
        "meta_element_set_no": 999,
        "meta_rev_at_epoch": 5370,
        "meta_bstar": 0,
        "meta_mean_motion_dot": -1.99e-06,
        "meta_mean_motion_ddot": 0,
        "tle_line1": "1 37384U 11013A   25337.61955464 -.00000199  00000+0  00000+0 0  9999",
        "tle_line2": "2 37384  62.1308  42.0050 0035392 186.5359 174.9093  1.00272128 53708"
      },
      "geometry": {
        "type": "Point",
        "coordinates": [
          -18.08695361424688,
          -58.650675253815805
        ]
      }
    },
    {
      "type": "Feature",
      "properties": {
        "norad_id": 37605,
        "name": "GSAT-8 (GAGAN/PRN 127)",
        "group": "gnss",
        "lat": -0.3031192243060925,
        "lon": -85.884278108498,
        "alt_km": 35747.99049641084,
        "timestamp": "2025-12-06T09:34:17.156197+00:00",
        "meta_object_name": "GSAT-8 (GAGAN/PRN 127)",
        "meta_object_id": "2011-022A",
        "meta_epoch": "2025-12-05T20:49:26.905728",
        "meta_mean_motion": 1.00272352,
        "meta_eccentricity": 0.00091178,
        "meta_inclination": 1.6309,
        "meta_ra_of_asc_node": 84.2663,
        "meta_arg_of_pericenter": 178.897,
        "meta_mean_anomaly": 179.2114,
        "meta_ephemeris_type": 0,
        "meta_classification_type": "U",
        "meta_norad_cat_id": 37605,
        "meta_element_set_no": 999,
        "meta_rev_at_epoch": 5127,
        "meta_bstar": 0,
        "meta_mean_motion_dot": 9.3e-07,
        "meta_mean_motion_ddot": 0,
        "tle_line1": "1 37605U 11022A   25339.86767252  .00000093  00000+0  00000+0 0  9992",
        "tle_line2": "2 37605   1.6309  84.2663 0009117 178.8970 179.2114  1.00272352 51271"
      },
      "geometry": {
        "type": "Point",
        "coordinates": [
          -85.884278108498,
          -0.3031192243060925
        ]
      }
    },
    {
      "type": "Feature",
      "properties": {
        "norad_id": 37763,
        "name": "BEIDOU-2 IGSO-4 (C09)",
        "group": "gnss",
        "lat": 28.531178066409566,
        "lon": -35.40188826846496,
        "alt_km": 35729.21763468173,
        "timestamp": "2025-12-06T09:34:17.156210+00:00",
        "meta_object_name": "BEIDOU-2 IGSO-4 (C09)",
        "meta_object_id": "2011-038A",
        "meta_epoch": "2025-12-01T12:32:09.960864",
        "meta_mean_motion": 1.00284074,
        "meta_eccentricity": 0.01487808,
        "meta_inclination": 54.5808,
        "meta_ra_of_asc_node": 167.4476,
        "meta_arg_of_pericenter": 230.2031,
        "meta_mean_anomaly": 315.0387,
        "meta_ephemeris_type": 0,
        "meta_classification_type": "U",
        "meta_norad_cat_id": 37763,
        "meta_element_set_no": 999,
        "meta_rev_at_epoch": 5266,
        "meta_bstar": 0,
        "meta_mean_motion_dot": 1.01e-06,
        "meta_mean_motion_ddot": 0,
        "tle_line1": "1 37763U 11038A   25335.52233751  .00000101  00000+0  00000+0 0  9995",
        "tle_line2": "2 37763  54.5808 167.4476 0148780 230.2031 315.0387  1.00284074 52664"
      },
      "geometry": {
        "type": "Point",
        "coordinates": [
          -35.40188826846496,
          28.531178066409566
        ]
      }
    }
  ]
}